{"type": "FeatureCollection", "features": [ {"type": "Feature", "properties": {"norad_id": 57401, "name": "TIANMU-1 09", "group": "weather", "lat": 6.689370330878694, "lon": -153.44101568834597, "alt_km": 482.25070375919495, "timestamp": "2025-12-02T07:10:08.752122+00:00", "meta": {"OBJECT_NAME": "TIANMU-1 09", "OBJECT_ID": "2023-101C", "EPOCH": "2025-12-01T20:58:59.101824", "MEAN_MOTION": 15.27829153, "ECCENTRICITY": 0.0006696, "INCLINATION": 97.2845, "RA_OF_ASC_NODE": 25.2846, "ARG_OF_PERICENTER": 113.5, "MEAN_ANOMALY": 246.6944, "EPHEMERIS_TYPE": 0, "CLASSIFICATION_TYPE": "U", "NORAD_CAT_ID": 57401, "ELEMENT_SET_NO": 999, "REV_AT_EPOCH": 13149, "BSTAR": 0.00030891, "MEAN_MOTION_DOT": 8.328e-05, "MEAN_MOTION_DDOT": 0}, "tle": {"line1": "1 57401U 23101C   25335.87429516  .00008328  00000+0  30891-3 0  9998", "line2": "2 57401  97.2845  25.2846 0006696 113.5000 246.6944 15.27829153131494"}}, "geometry": {"type": "Point", "coordinates": [-153.44101568834597, 6.689370330878694]}}, {"type": "Feature", "properties": {"norad_id": 57402, "name": "TIANMU-1 10", "group": "weather", "lat": -14.74136445274732, "lon": 28.46915473222524, "alt_km": 490.6677604637125, "timestamp": "2025-12-02T07:10:08.752132+00:00", "meta": {"OBJECT_NAME": "TIANMU-1 10", "OBJECT_ID": "2023-101D", "EPOCH": "2025-12-01T20:13:51.309408", "MEAN_MOTION": 15.27819033, "ECCENTRICITY": 0.0008431, "INCLINATION": 97.2927, "RA_OF_ASC_NODE": 26.0923, "ARG_OF_PERICENTER": 114.8462, "MEAN_ANOMALY": 245.3655, "EPHEMERIS_TYPE": 0, "CLASSIFICATION_TYPE": "U", "NORAD_CAT_ID": 57402, "ELEMENT_SET_NO": 999, "REV_AT_EPOCH": 13148, "BSTAR": 0.00031547, "MEAN_MOTION_DOT": 8.508e-05, "MEAN_MOTION_DDOT": 0}, "tle": {"line1": "1 57402U 23101D   25335.84295497  .00008508  00000+0  31547-3 0  9994", "line2": "2 57402  97.2927  26.0923 0008431 114.8462 245.3655 15.27819033131486"}}, "geometry": {"type": "Point", "coordinates": [28.46915473222524, -14.74136445274732]}}, {"type": "Feature", "properties": {"norad_id": 57490, "name": "FENGYUN 3F", "group": "weather", "lat": -19.992666144722776, "lon": 47.9570490842742, "alt_km": 830.9535376669992, "timestamp": "2025-12-02T07:10:08.752144+00:00", "meta": {"OBJECT_NAME": "FENGYUN 3F", "OBJECT_ID": "2023-111A", "EPOCH": "2025-12-01T19:25:32.157408", "MEAN_MOTION": 14.19888722, "ECCENTRICITY": 7.14e-05, "INCLINATION": 98.7097, "RA_OF_ASC_NODE": 44.2785, "ARG_OF_PERICENTER": 83.5175, "MEAN_ANOMALY": 276.6083, "EPHEMERIS_TYPE": 0, "CLASSIFICATION_TYPE": "U", "NORAD_CAT_ID": 57490, "ELEMENT_SET_NO": 999, "REV_AT_EPOCH": 12085, "BSTAR": 6.3158e-05, "MEAN_MOTION_DOT": 9e-07, "MEAN_MOTION_DDOT": 0}, "tle": {"line1": "1 57490U 23111A   25335.80939997  .00000090  00000+0  63158-4 0  9990", "line2": "2 57490  98.7097  44.2785 0000714  83.5175 276.6083 14.19888722120856"}}, "geometry": {"type": "Point", "coordinates": [47.9570490842742, -19.992666144722776]}}, {"type": "Feature", "properties": {"norad_id": 58584, "name": "ARKTIKA-M 2", "group": "weather", "lat": 15.743553028016976, "lon": -12.159756416252767, "alt_km": 10916.338942104045, "timestamp": "2025-12-02T07:10:08.752156+00:00", "meta": {"OBJECT_NAME": "ARKTIKA-M 2", "OBJECT_ID": "2023-198A", "EPOCH": "2025-12-01T08:43:04.634112", "MEAN_MOTION": 2.00605427, "ECCENTRICITY": 0.6864029, "INCLINATION": 63.2218, "RA_OF_ASC_NODE": 176.1298, "ARG_OF_PERICENTER": 268.1507, "MEAN_ANOMALY": 18.8441, "EPHEMERIS_TYPE": 0, "CLASSIFICATION_TYPE": "U", "NORAD_CAT_ID": 58584, "ELEMENT_SET_NO": 999, "REV_AT_EPOCH": 1435, "BSTAR": 0, "MEAN_MOTION_DOT": 2.37e-06, "MEAN_MOTION_DDOT": 0}, "tle": {"line1": "1 58584U 23198A   25335.36324808  .00000237  00000+0  00000+0 0  9995", "line2": "2 58584  63.2218 176.1298 6864029 268.1507  18.8441  2.00605427 14357"}}, "geometry": {"type": "Point", "coordinates": [-12.159756416252767, 15.743553028016976]}}, {"type": "Feature", "properties": {"norad_id": 58645, "name": "TIANMU-1 11", "group": "weather", "lat": -65.0629004673107, "lon": 12.252023787457027, "alt_km": 496.48717412097267, "timestamp": "2025-12-02T07:10:08.752168+00:00", "meta": {"OBJECT_NAME": "TIANMU-1 11", "OBJECT_ID": "2023-205A", "EPOCH": "2025-12-01T20:25:49.431648", "MEAN_MOTION": 15.24389586, "ECCENTRICITY": 0.0009033, "INCLINATION": 97.3619, "RA_OF_ASC_NODE": 355.6678, "ARG_OF_PERICENTER": 352.7112, "MEAN_ANOMALY": 7.3993, "EPHEMERIS_TYPE": 0, "CLASSIFICATION_TYPE": "U", "NORAD_CAT_ID": 58645, "ELEMENT_SET_NO": 999, "REV_AT_EPOCH": 10743, "BSTAR": 0.00025582, "MEAN_MOTION_DOT": 6.204e-05, "MEAN_MOTION_DDOT": 0}, "tle": {"line1": "1 58645U 23205A   25335.85126657  .00006204  00000+0  25582-3 0  9994", "line2": "2 58645  97.3619 355.6678 0009033 352.7112   7.3993 15.24389586107438"}}, "geometry": {"type": "Point", "coordinates": [12.252023787457027, -65.0629004673107]}}, {"type": "Feature", "properties": {"norad_id": 58646, "name": "TIANMU-1 12", "group": "weather", "lat": 29.582965288668643, "lon": -179.87535948442022, "alt_km": 496.13530332011396, "timestamp": "2025-12-02T07:10:08.752178+00:00", "meta": {"OBJECT_NAME": "TIANMU-1 12", "OBJECT_ID": "2023-205B", "EPOCH": "2025-12-01T21:03:35.665632", "MEAN_MOTION": 15.24302022, "ECCENTRICITY": 0.0006813, "INCLINATION": 97.3606, "RA_OF_ASC_NODE": 355.5026, "ARG_OF_PERICENTER": 338.59, "MEAN_ANOMALY": 21.5052, "EPHEMERIS_TYPE": 0, "CLASSIFICATION_TYPE": "U", "NORAD_CAT_ID": 58646, "ELEMENT_SET_NO": 999, "REV_AT_EPOCH": 10742, "BSTAR": 0.0003005, "MEAN_MOTION_DOT": 7.279e-05, "MEAN_MOTION_DDOT": 0}, "tle": {"line1": "1 58646U 23205B   25335.87749613  .00007279  00000+0  30050-3 0  9999", "line2": "2 58646  97.3606 355.5026 0006813 338.5900  21.5052 15.24302022107424"}}, "geometry": {"type": "Point", "coordinates": [-179.87535948442022, 29.582965288668643]}}, {"type": "Feature", "properties": {"norad_id": 58647, "name": "TIANMU-1 13", "group": "weather", "lat": -34.60920643475162, "lon": 1.2328692119405946, "alt_km": 494.76755489987227, "timestamp": "2025-12-02T07:10:08.752188+00:00", "meta": {"OBJECT_NAME": "TIANMU-1 13", "OBJECT_ID": "2023-205C", "EPOCH": "2025-12-01T20:17:36.448800", "MEAN_MOTION": 15.24308305, "ECCENTRICITY": 0.0006508, "INCLINATION": 97.3634, "RA_OF_ASC_NODE": 355.6677, "ARG_OF_PERICENTER": 315.893, "MEAN_ANOMALY": 44.1787, "EPHEMERIS_TYPE": 0, "CLASSIFICATION_TYPE": "U", "NORAD_CAT_ID": 58647, "ELEMENT_SET_NO": 999, "REV_AT_EPOCH": 10741, "BSTAR": 0.00027821, "MEAN_MOTION_DOT": 6.734e-05, "MEAN_MOTION_DDOT": 0}, "tle": {"line1": "1 58647U 23205C   25335.84556075  .00006734  00000+0  27821-3 0  9992", "line2": "2 58647  97.3634 355.6677 0006508 315.8930  44.1787 15.24308305107416"}}, "geometry": {"type": "Point", "coordinates": [1.2328692119405946, -34.60920643475162]}}, {"type": "Feature", "properties": {"norad_id": 58648, "name": "TIANMU-1 14", "group": "weather", "lat": 56.10703941549419, "lon": -15.616756247857253, "alt_km": 488.33431266484513, "timestamp": "2025-12-02T07:10:08.752198+00:00", "meta": {"OBJECT_NAME": "TIANMU-1 14", "OBJECT_ID": "2023-205D", "EPOCH": "2025-12-01T19:53:32.113824", "MEAN_MOTION": 15.24292457, "ECCENTRICITY": 0.0007441, "INCLINATION": 97.3566, "RA_OF_ASC_NODE": 355.0101, "ARG_OF_PERICENTER": 319.96, "MEAN_ANOMALY": 40.1088, "EPHEMERIS_TYPE": 0, "CLASSIFICATION_TYPE": "U", "NORAD_CAT_ID": 58648, "ELEMENT_SET_NO": 999, "REV_AT_EPOCH": 10741, "BSTAR": 0.00027823, "MEAN_MOTION_DOT": 6.733e-05, "MEAN_MOTION_DDOT": 0}, "tle": {"line1": "1 58648U 23205D   25335.82884391  .00006733  00000+0  27823-3 0  9997", "line2": "2 58648  97.3566 355.0101 0007441 319.9600  40.1088 15.24292457107413"}}, "geometry": {"type": "Point", "coordinates": [-15.616756247857253, 56.10703941549419]}}, {"type": "Feature", "properties": {"norad_id": 58660, "name": "TIANMU-1 19", "group": "weather", "lat": -8.008015417001435, "lon": -93.69441417159122, "alt_km": 488.3072265378869, "timestamp": "2025-12-02T07:10:08.752209+00:00", "meta": {"OBJECT_NAME": "TIANMU-1 19", "OBJECT_ID": "2023-208A", "EPOCH": "2025-12-01T20:54:55.681056", "MEAN_MOTION": 15.27534831, "ECCENTRICITY": 0.0004192, "INCLINATION": 97.4387, "RA_OF_ASC_NODE": 86.9327, "ARG_OF_PERICENTER": 301.3186, "MEAN_ANOMALY": 58.7642, "EPHEMERIS_TYPE": 0, "CLASSIFICATION_TYPE": "U", "NORAD_CAT_ID": 58660, "ELEMENT_SET_NO": 999, "REV_AT_EPOCH": 10716, "BSTAR": 0.00038924, "MEAN_MOTION_DOT": 0.00010415, "MEAN_MOTION_DDOT": 0}, "tle": {"line1": "1 58660U 23208A   25335.87147779  .00010415  00000+0  38924-3 0  9997", "line2": "2 58660  97.4387  86.9327 0004192 301.3186  58.7642 15.27534831107164"}}, "geometry": {"type": "Point", "coordinates": [-93.69441417159122, -8.008015417001435]}}, {"type": "Feature", "properties": {"norad_id": 58661, "name": "TIANMU-1 20", "group": "weather", "lat": -37.17771822647177, "lon": -97.88598989695855, "alt_km": 486.1911557612957, "timestamp": "2025-12-02T07:10:08.752219+00:00", "meta": {"OBJECT_NAME": "TIANMU-1 20", "OBJECT_ID": "2023-208B", "EPOCH": "2025-12-01T20:47:40.456608", "MEAN_MOTION": 15.28727851, "ECCENTRICITY": 0.0006553, "INCLINATION": 97.4325, "RA_OF_ASC_NODE": 87.3646, "ARG_OF_PERICENTER": 310.9403, "MEAN_ANOMALY": 49.1269, "EPHEMERIS_TYPE": 0, "CLASSIFICATION_TYPE": "U", "NORAD_CAT_ID": 58661, "ELEMENT_SET_NO": 999, "REV_AT_EPOCH": 10723, "BSTAR": 0.00037009, "MEAN_MOTION_DOT": 0.0001027, "MEAN_MOTION_DDOT": 0}, "tle": {"line1": "1 58661U 23208B   25335.86644047  .00010270  00000+0  37009-3 0  9999", "line2": "2 58661  97.4325  87.3646 0006553 310.9403  49.1269 15.28727851107231"}}, "geometry": {"type": "Point", "coordinates": [-97.88598989695855, -37.17771822647177]}}]}